OBJECT B                
1 51825U 22019B   26094.96254057  .00081449  00000+0  81558-3 0  9999
2 51825  97.3498 183.3720 0005224  40.6481 319.5167 15.65282436228278
